STARLINK-1232           
1 45213U 20012AM  21225.55683143 -.00001148  00000-0 -58237-4 0  9992
2 45213  53.0562 319.6580 0001123 123.0826 237.0271 15.06391306 83545
STARLINK-1233           
1 45214U 20012AN  21225.52734987  .00001086  00000-0  91774-4 0  9995
2 45214  53.0541 319.7912 0000893 113.7747 246.3336 15.06394002 83534
STARLINK-1245           
1 45215U 20012AP  21225.52367419  .00001236  00000-0  10189-3 0  9995
2 45215  53.0550 319.7969 0001008 134.4662 225.6410 15.06393242 83473
STARLINK-1254           
1 45216U 20012AQ  21225.54945605 -.00001413  00000-0 -76007-4 0  9998
2 45216  53.0553 319.6804 0000804 133.0614 227.0443 15.06391340 83388
STARLINK-1271           
1 45217U 20012AR  21225.56420489 -.00000629  00000-0 -23376-4 0  9998
2 45217  53.0555 319.6186 0001101 110.1410 249.9698 15.06390708 83545
STARLINK-1187           
1 45219U 20012AT  21225.56235811 -.00001060  00000-0 -52301-4 0  9993
2 45219  53.0548 299.6272 0000761 104.8299 255.2774 15.06390260 83838
STARLINK-1188           
1 45220U 20012AU  21225.56937052  .00047156  00000-0  31328-2 0  9999
2 45220  53.0554 299.5981 0001377 108.1771 251.9368 15.06762340 83710
STARLINK-1189           
1 45221U 20012AV  21225.49969707 -.00001025  00000-0 -49926-4 0  9996
2 45221  53.0551 299.9075 0001071  82.9781 277.1330 15.06393291 83812
STARLINK-1191           
1 45222U 20012AW  21225.50707675  .00000723  00000-0  67389-4 0  9998
2 45222  53.0556 299.8780 0000303 107.7352 252.3670 15.06395345 83811
STARLINK-1212           
1 45223U 20012AX  21225.52920089  .00000557  00000-0  56257-4 0  9994
2 45223  53.0549 299.7867 0000934 124.3384 235.7693 15.06391845 83821
STARLINK-1214           
1 45224U 20012AY  21225.50663308  .00012016  00000-0  11106-3 0  9997
2 45224  53.0507 268.8646 0007144 276.6772  83.3430 15.68045409 84131
STARLINK-1215           
1 45225U 20012AZ  21225.54761217 -.00001347  00000-0 -71583-4 0  9993
2 45225  53.0543 299.6883 0000684 132.1344 227.9703 15.06389096 83773
STARLINK-1217           
1 45226U 20012BA  21225.48864094  .00001281  00000-0  10488-3 0  9995
2 45226  53.0548 299.9552 0000500 117.9033 242.2007 15.06399526 83729
STARLINK-1221           
1 45227U 20012BB  21225.51075961 -.00001556  00000-0 -85613-4 0  9997
2 45227  53.0559 299.8652 0000922 128.6039 231.5033 15.06393855 83735
STARLINK-1222           
1 45228U 20012BC  21225.51444360 -.00001121  00000-0 -56390-4 0  9999
2 45228  53.0550 299.8380 0000924 126.7557 233.3517 15.06395125 83707
STARLINK-1226           
1 45229U 20012BD  21225.47759868  .00000255  00000-0  36001-4 0  9999
2 45229  53.0534 299.9987 0000856 121.0879 239.0194 15.06387045 83709
STARLINK-1227           
1 45230U 20012BE  21225.47388764  .00000398  00000-0  45606-4 0  9993
2 45230  53.0545 300.0228 0000880 111.3895 248.7188 15.06400070 83829
STARLINK-1229           
1 45231U 20012BF  21225.40048215  .00000383  00000-0  75735-5 0  9992
2 45231  53.0340 278.2896 0001539  43.9715 316.1424 15.71480903 83988
STARLINK-1235           
1 45232U 20012BG  21225.48495429 -.00000772  00000-0 -32934-4 0  9991
2 45232  53.0548 299.9710 0000565 127.8303 232.2738 15.06396151 83814
STARLINK-1238           
1 45233U 20012BH  21225.53103236 -.00001000  00000-0 -48246-4 0  9998
2 45233  53.0544 319.7587 0001042 129.6948 230.4133 15.06390780 83529
STARLINK-1243           
1 45234U 20012BJ  21225.50339844 -.00001249  00000-0 -64977-4 0  9996
2 45234  53.0548 339.9035 0001420 107.5399 252.5745 15.06388316 83224
STARLINK-1246           
1 45235U 20012BK  21225.48865155  .00000736  00000-0  68277-4 0  9998
2 45235  53.0565 339.9580 0001119 129.1246 230.9842 15.06392612 83272
STARLINK-1247           
1 45236U 20012BL  21225.47022153 -.00001237  00000-0 -64196-4 0  9996
2 45236  53.0540 300.0511 0000971 115.9116 244.1974 15.06384865 83806
STARLINK-1270           
1 45237U 20012BM  21225.55870339  .00000544  00000-0  55377-4 0  9992
2 45237  53.0553 299.6490 0000630 105.6854 254.4205 15.06389552 83828
JCSAT-17                
1 45245U 20013A   21224.68662364 -.00000315  00000-0  00000+0 0  9997
2 45245   6.4596 344.3532 0004257 159.6492 200.5027  1.00273055  5509
GEO-KOMPSAT-2B          
1 45246U 20013B   21225.36003817 -.00000347  00000-0  00000-0 0  9992
2 45246   0.0095  94.7116 0002194  13.1274 112.0239  1.00273406  5522
XJS C                   
1 45249U 20014A   21225.43581512  .00001559  00000-0  53259-4 0  9990
2 45249  35.0160 250.5785 0007017 126.0899   8.6053 15.30246370 82792
XJS D                   
1 45250U 20014B   21225.43571921  .00001603  00000-0  54722-4 0  9991
2 45250  35.0162 250.6003 0006841 125.6696   8.9849 15.30241791 82792
XJS E                   
1 45251U 20014C   21225.43595530  .00003659  00000-0  12306-3 0  9998
2 45251  35.0168 250.6022 0006835 133.2580   1.5089 15.30256813 82752
XJS F                   
1 45253U 20014E   21225.43644105  .00004408  00000-0  14795-3 0  9990
2 45253  35.0158 250.5604 0006795 135.9404   3.3532 15.30258328 82753
MERIDIAN 9              
1 45254U 20015A   21224.63521679  .00000187  00000-0  00000-0 0  9994
2 45254  62.9944 159.3068 6936855 294.8856 202.3150  2.00614443 10819
HARP                    
1 45256U 98067QZ  21225.33480934  .00013744  00000-0  16855-3 0  9995
2 45256  51.6422  40.1639 0005791 124.0666 236.0878 15.60634777 84152
1998-067RA              
1 45257U 98067RA  21225.49136248  .00011827  00000-0  15390-3 0  9992
2 45257  51.6384  41.1264 0006551 127.1912 232.9679 15.59221437 84155
PHOENIX                 
1 45258U 98067RB  21225.48162401  .00008800  00000-0  12245-3 0  9995
2 45258  51.6394  43.3040 0005531 108.0788 252.0807 15.57812299 84098
1998-067RC              
1 45259U 98067RC  21225.56357333  .00023386  00000-0  24412-3 0  9990
2 45259  51.6386  34.1030 0004907 131.3983 228.7434 15.64373915 84258
CRYOCUBE                
1 45260U 98067RD  21225.52242170  .00042609  00000-0  36853-3 0  9991
2 45260  51.6365  31.5545 0003890 141.5215 218.6060 15.68739298 84291
AZTECHSAT-1             
1 45261U 98067RE  21225.54447682  .00035330  00000-0  29842-3 0  9992
2 45261  51.6356  27.9180 0003940 139.7537 220.3753 15.69405756 84332
RADSAT-U                
1 45262U 98067RF  21224.78814454  .00011233  00000-0  14410-3 0  9994
2 45262  51.6414  44.0074 0005378 156.9096 203.2140 15.59666724 84061
QARMAN                  
1 45263U 98067RG  21225.55829931  .00023545  00000-0  24652-3 0  9995
2 45263  51.6384  34.8119 0004922 127.4446 232.6998 15.64292617 84273
SORTIE                  
1 45264U 98067RH  21225.06835922  .00006394  00000-0  97711-4 0  9999
2 45264  51.6419  48.8474 0007072 125.9389 234.2260 15.55792962 84010
BEIDOU-3 G2             
1 45344U 20017A   21225.56573218 -.00000142  00000-0  00000-0 0  9997
2 45344   2.3575 338.3433 0004021 149.7391 117.8192  1.00271029  5536
COSMOS 2545 [GLONASS-M] 
1 45358U 20018A   21225.55630244 -.00000041  00000-0  00000-0 0  9993
2 45358  64.9107  13.9644 0007231 235.4206 104.1165  2.13102782 10966
STARLINK-1279           
1 45360U 20019A   21224.98644939  .00000396  00000-0  45539-4 0  9991
2 45360  53.0541  72.2100 0002080  85.0925 275.0301 15.06386916 78478
STARLINK-1301           
1 45361U 20019B   21225.30618191  .00000849  00000-0  75936-4 0  9997
2 45361  53.0548  80.7758 0002011  85.2212 274.9006 15.06398684 78390
STARLINK-1306           
1 45362U 20019C   21225.08686951  .00000622  00000-0  60666-4 0  9995
2 45362  53.0544 101.7622 0002039  78.1781 281.9437 15.06398110 78078
STARLINK-1313           
1 45364U 20019E   21225.04909401 -.00001251  00000-0 -65084-4 0  9991
2 45364  53.0549  71.9320 0001963  92.9882 267.1332 15.06392945 78484
STARLINK-1317           
1 45365U 20019F   21225.48828192  .00000533  00000-0  55743-4 0  9998
2 45365  53.0022  79.9446 0001793  85.3986 274.7207 15.05583988 78393
STARLINK-1262           
1 45366U 20019G   21225.07212990 -.00001031  00000-0 -50314-4 0  9992
2 45366  53.0544 101.8260 0002074  83.5559 276.5666 15.06396814 78087
STARLINK-1273           
1 45367U 20019H   21225.35963537  .00001840  00000-0  14239-3 0  9995
2 45367  53.0551 100.5414 0001863  83.0376 277.0825 15.06401154 78122
STARLINK-1276           
1 45368U 20019J   21225.46284653  .00000548  00000-0  55709-4 0  9995
2 45368  53.0558 100.0805 0001782  84.6375 275.4818 15.06390529 78144
STARLINK-1277           
1 45369U 20019K   21224.93111070  .00000574  00000-0  57423-4 0  9993
2 45369  53.0553 102.4600 0001943  77.0186 283.1020 15.06401064 78063
STARLINK-1281           
1 45370U 20019L   21225.38543818 -.00001161  00000-0 -59081-4 0  9991
2 45370  53.0538 100.4197 0001969  82.0225 278.0987 15.06387103 78135
STARLINK-1287           
1 45371U 20019M   21224.95048733  .00000626  00000-0  60944-4 0  9993
2 45371  53.0554 102.3816 0002146  88.9483 271.1751 15.06400823 78062
STARLINK-1288           
1 45372U 20019N   21225.36332502 -.00001004  00000-0 -48532-4 0  9992
2 45372  53.0546 100.5250 0002080  80.1799 279.9424 15.06395168 78122
STARLINK-1295           
1 45373U 20019P   21225.07950286 -.00001061  00000-0 -52359-4 0  9991
2 45373  53.0563 101.8017 0001935  86.8099 273.3111 15.06390299 78087
STARLINK-1300           
1 45374U 20019Q   21225.07581716 -.00001363  00000-0 -72659-4 0  9990
2 45374  53.0563 101.8186 0001954  87.6577 272.4636 15.06390549 78086
STARLINK-1302           
1 45375U 20019R   21225.09056257 -.00001205  00000-0 -61994-4 0  9995
2 45375  53.0553 101.7481 0001782  85.9266 274.1927 15.06395540 78086
STARLINK-1304           
1 45376U 20019S   21225.37437373  .00000870  00000-0  77275-4 0  9993
2 45376  53.0548 100.4732 0001498  76.7289 283.3867 15.06401811 78122
STARLINK-1305           
1 45377U 20019T   21225.06845329  .00000412  00000-0  46585-4 0  9996
2 45377  53.0560 101.8522 0001968  77.2929 282.8280 15.06394484 78083
